420P/Hill,e,14.5042,173.9520,157.0977,5.530520,0.0757801,0.49580903,357.5350,04/20.0/2022,2000,g 11.5,4.0
# From MPEC 2021-W31
421P/McNaught,e,10.0794,55.3477,259.8366,5.075426,0.0861976,0.67548015,38.7195,04/20.0/2022,2000,g 14.0,4.0
# From MPEC 2022-A21
422P/Christensen,e,39.5468,36.0344,305.1547,6.320994,0.0620192,0.50875047,5.9670,04/20.0/2022,2000,g 11.0,4.0
# From MPEC 2022-A21
423P/Lemmon,e,8.3459,33.3047,80.3005,6.166310,0.0643674,0.12104355,13.7410,04/20.0/2022,2000,g  8.0,4.0
# From MPEC 2022-CN4
424P/LaSagra,e,8.6855,51.1776,312.4775,4.413998,0.1062811,0.69126716,18.1066,04/20.0/2022,2000,g 17.0,4.0
# From MPEC 2022-GA9
425P/Kowalski,e,16.4205,210.0851,200.7530,6.331520,0.0618646,0.54352483,13.0852,04/20.0/2022,2000,g 12.0,4.0
# From MPEC 2021-Y10
426P/PANSTARRS,e,17.7731,280.5218,119.1232,3.186265,0.1732931,0.16131950,271.2712,04/20.0/2022,2000,g 13.5,4.0
# From MPEC 2022-C56
428P/Gibbs,e,8.5148,299.3371,36.8229,3.484392,0.1515352,0.51949370,51.5724,04/20.0/2022,2000,g 15.0,4.0
# From MPEC 2022-H04
429P/LINEAR-Hill,e,7.5220,322.0732,75.5387,3.550586,0.1473174,0.49128355,15.8893,04/20.0/2022,2000,g 15.5,4.0
# From MPEC 2022-CN4
430P/Scotti,e,4.4750,54.6720,94.4979,3.106697,0.1799930,0.49959603,24.9802,04/20.0/2022,2000,g 16.5,4.0
# From MPEC 2022-ED3
431P/Scotti,e,22.3922,202.8463,199.8572,3.472273,0.1523292,0.47766622,9.9976,04/20.0/2022,2000,g 14.0,4.0
# From MPEC 2021-U31
432P/PANSTARRS,e,10.0693,239.1429,105.2365,3.035490,0.1863635,0.24203130,43.3575,04/20.0/2022,2000,g 17.0,4.0
# From MPEC 2022-GA9
434P/Tenagra,e,6.3396,288.9679,128.0535,4.128015,0.1175147,0.27434809,20.7031,04/20.0/2022,2000,g 13.0,4.0
# From MPEC 2021-W31
435P/PANSTARRS,e,18.8827,98.5498,244.1516,3.018366,0.1879517,0.31871354,50.0959,04/20.0/2022,2000,g 17.0,4.0
# From MPEC 2022-C56
436P/Garradd,e,20.2105,87.1896,282.5965,5.928872,0.0682725,0.66981442,9.0460,04/20.0/2022,2000,g 14.5,4.0
# From MPEC 2021-Y10
437P/PANSTARRS,e,3.6897,245.8688,206.7115,4.558633,0.1012633,0.25412016,347.8053,04/20.0/2022,2000,g 13.0,4.0
# From MPEC 2021-W47
438P/Christensen,e,8.2878,260.1551,58.9471,3.847044,0.1306211,0.41574640,97.2654,04/20.0/2022,2000,g 14.5,4.0
# From MPEC 2022-C56
439P/LINEAR,e,7.1142,56.4163,342.0006,3.487669,0.1513217,0.46948819,35.8467,04/20.0/2022,2000,g 13.5,4.0
# From MPEC 2022-H04
440P/Kobayashi,e,12.3394,328.8822,183.3182,8.584800,0.0391840,0.76047995,0.8248,04/20.0/2022,2000,g 15.5,4.0
# From MPEC 2022-F14
441P/PANSTARRS,e,2.5745,143.6159,178.7275,4.134802,0.1172255,0.19559929,215.0060,04/20.0/2022,2000,g 13.5,4.0
# From MPC107687
1I/`Oumuamua,h,09/09.4886/2017,122.6778,24.5997,241.6845,1.199252,0.255240,2000,23.0,2.0
# From MPEC 2020-K19
2I/Borisov,h,12/08.5549/2019,44.0527,308.1480,209.1251,3.356636,2.006548,2000,11.0,4.0
